OBJECT_NAME,OBJECT_ID,EPOCH,MEAN_MOTION,ECCENTRICITY,INCLINATION,RA_OF_ASC_NODE,ARG_OF_PERICENTER,MEAN_ANOMALY,EPHEMERIS_TYPE,CLASSIFICATION_TYPE,NORAD_CAT_ID,ELEMENT_SET_NO,REV_AT_EPOCH,BSTAR,MEAN_MOTION_DOT,MEAN_MOTION_DDOT
LEMUR-2-FINNIAN,2025-276DX,2026-07-22T21:21:36.847584,15.00678347,.00069266,97.5350,273.7744,329.5033,30.5787,0,U,66782,999,2535,.45883079E-3,.5754E-4,0
LEMUR-2-STARLIGHT,2025-276DY,2026-07-22T03:25:54.526944,14.99416887,.00145123,97.5239,272.5886,26.2388,333.9568,0,U,66783,999,3543,.55453521E-3,.6752E-4,0
LEMUR-2-TARTIFLETTE,2025-276DZ,2026-07-22T16:12:30.669408,14.99403660,.00137498,97.5240,273.1104,33.4465,326.7624,0,U,66784,999,3551,.5236286E-3,.6369E-4,0
LEMUR-2-VUKASIN,2025-276EA,2026-07-22T21:45:19.280160,15.00598770,.00018461,97.5197,273.7039,24.6131,335.5181,0,U,66785,999,3550,.46787822E-3,.5854E-4,0
LEMUR-2-HOTSPUR-TOM,2025-276EB,2026-07-22T11:16:51.997728,14.99296959,.00135062,97.5215,272.8837,26.0227,334.1672,0,U,66786,999,3541,.51386368E-3,.6231E-4,0
LEMUR-2-MYRA,2025-276EC,2026-07-22T11:18:45.244800,15.00646858,.00184734,97.5226,273.2042,31.8904,328.3435,0,U,66787,999,3550,.47195539E-3,.5934E-4,0
LEMUR-2 FIKRETDENGIZ,2026-004A,2026-07-21T22:58:16.777632,14.88552806,.00097015,97.8036,200.9883,36.3875,323.7999,0,U,67363,999,2845,.4489565E-3,.4126E-4,0
TWILIGHT-1 OBJECT B,2026-004B,2026-07-20T23:43:51.115584,14.87805943,.00093149,97.8078,200.0319,28.9865,331.1867,0,U,67364,999,2831,.12739587E-3,.111E-4,0
LEMUR-2-MARIO-SOUSA,2026-004C,2026-07-22T22:39:39.138336,14.88774217,.00092419,97.8007,201.9554,35.2361,324.9465,0,U,67365,999,2861,.51492136E-3,.4767E-4,0
LEMUR-2-SONNENBLUME,2026-004E,2026-07-22T22:45:51.887808,14.88482895,.00089045,97.8005,201.9290,35.7911,324.3902,0,U,67367,999,2861,.26574293E-3,.2415E-4,0
LEMUR-2-WOBLER,2026-004F,2026-07-22T17:38:13.002144,14.88735759,.00088651,97.8058,201.8775,28.3272,331.8425,0,U,67368,999,2858,.41523783E-3,.3829E-4,0
LEMUR-2-GRAM-E-SUE,2026-004H,2026-07-22T22:18:05.921280,14.88616362,.00081259,97.7993,201.9269,39.6409,320.5401,0,U,67370,999,2861,.23658874E-3,.2151E-4,0
LEMUR-2-KATIE,2026-004AA,2026-07-22T22:40:20.649216,14.90299200,.00027726,97.8053,202.5193,14.1370,345.9925,0,U,67387,999,2863,.5090192E-3,.4891E-4,0
LEMUR-2-HCS-BAZUS,2026-004AB,2026-07-22T22:37:54.856128,14.90302590,.00022638,97.8041,202.4950,15.6323,344.4965,0,U,67388,999,2863,.42097763E-3,.4035E-4,0
